[
    {
        "Altitude(m)": 607895.8465653608,
        "Argument of Periapsis(deg)": 0.0,
        "Eccentricity": 0.0,
        "Inclination(deg)": 60.0,
        "Latitude(deg)": 40.998418631847265,
        "Longitude(deg)": 50.08858327609585,
        "Mean Anomaly(deg)": 130.9091,
        "RAAN(deg)": 0.0,
        "Satellite Name": "Test1 8",
        "Satellite Number": 8,
        "Semi-Major Axis(m)": 6980739.136638005,
        "Time(s)": 0
    },
    {
        "Altitude(m)": 607795.1595664547,
        "Argument of Periapsis(deg)": 0.00010418945913296404,
        "Eccentricity": 0.0,
        "Inclination(deg)": 60.0,
        "Latitude(deg)": 40.53074352124759,
        "Longitude(deg)": 50.58517871501891,
        "Mean Anomaly(deg)": 131.5292061454618,
        "RAAN(deg)": -0.0004200491397426661,
        "Satellite Name": "Test1 8",
        "Satellite Number": 8,
        "Semi-Major Axis(m)": 6980739.136638005,
        "Time(s)": 10
    }
]